[{"OBJECT_NAME":"STARLINK-30146","OBJECT_ID":"2023-105N","EPOCH":"2026-03-09T22:00:01.999584","MEAN_MOTION":15.24370985,"ECCENTRICITY":9.65e-5,"INCLINATION":42.9993,"RA_OF_ASC_NODE":258.5873,"ARG_OF_PERICENTER":307.2589,"MEAN_ANOMALY":147.706,"EPHEMERIS_TYPE":0,"CLASSIFICATION_TYPE":"U","NORAD_CAT_ID":57442,"ELEMENT_SET_NO":999,"REV_AT_EPOCH":578,"BSTAR":0.033241649,"MEAN_MOTION_DOT":0.00895133,"MEAN_MOTION_DDOT":0},{"OBJECT_NAME":"POLYTECH UNIVERSE-4","OBJECT_ID":"2024-199N","EPOCH":"2026-03-09T22:39:35.452512","MEAN_MOTION":15.41920317,"ECCENTRICITY":0.00080129,"INCLINATION":97.316,"RA_OF_ASC_NODE":301.6563,"ARG_OF_PERICENTER":282.4901,"MEAN_ANOMALY":77.5449,"EPHEMERIS_TYPE":0,"CLASSIFICATION_TYPE":"U","NORAD_CAT_ID":61747,"ELEMENT_SET_NO":999,"REV_AT_EPOCH":12205,"BSTAR":0.00052704604,"MEAN_MOTION_DOT":0.0002238,"MEAN_MOTION_DDOT":0}]
